{
    "links": {
        "self": "http://www.neowsapp.com/rest/v1/neo/3660066?api_key=iIulBulltgU6a56xZRHN4H3l9WmuAYTsLGpBGhQ2"
    },
    "id": "3660066",
    "neo_reference_id": "3660066",
    "name": "(2014 BX43)",
    "designation": "2014 BX43",
    "nasa_jpl_url": "http://ssd.jpl.nasa.gov/sbdb.cgi?sstr=3660066",
    "absolute_magnitude_h": 25.9,
    "estimated_diameter": {
        "kilometers": {
            "estimated_diameter_min": 0.0175612318,
            "estimated_diameter_max": 0.0392681082
        },
        "meters": {
            "estimated_diameter_min": 17.561231848,
            "estimated_diameter_max": 39.2681081809
        },
        "miles": {
            "estimated_diameter_min": 0.0109120402,
            "estimated_diameter_max": 0.0244000636
        },
        "feet": {
            "estimated_diameter_min": 57.6155918963,
            "estimated_diameter_max": 128.8323800441
        }
    },
    "is_potentially_hazardous_asteroid": false,
    "close_approach_data": [
        {
            "close_approach_date": "1952-07-07",
            "close_approach_date_full": "1952-Jul-07 22:19",
            "epoch_date_close_approach": -551756460000,
            "relative_velocity": {
                "kilometers_per_second": "29.2271991591",
                "kilometers_per_hour": "105217.9169726124",
                "miles_per_hour": "65378.3217988991"
            },
            "miss_distance": {
                "astronomical": "0.4356257592",
                "lunar": "169.4584203288",
                "kilometers": "65168685.693452904",
                "miles": "40493943.5607979152"
            },
            "orbiting_body": "Earth"
        },
        {
            "close_approach_date": "2014-02-02",
            "close_approach_date_full": "2014-Feb-02 00:54",
            "epoch_date_close_approach": 1391302440000,
            "relative_velocity": {
                "kilometers_per_second": "16.6016947378",
                "kilometers_per_hour": "59766.1010560386",
                "miles_per_hour": "37136.3309589591"
            },
            "miss_distance": {
                "astronomical": "0.0231827454",
                "lunar": "9.0180879606",
                "kilometers": "3468089.332592298",
                "miles": "2154970.7839497924"
            },
            "orbiting_body": "Earth"
        }
    ],
    "orbital_data": {
        "orbit_id": "5",
        "orbit_determination_date": "2017-04-06 08:42:39",
        "first_observation_date": "2014-01-24",
        "last_observation_date": "2014-01-30",
        "data_arc_in_days": 6,
        "observations_used": 24,
        "orbit_uncertainty": "8",
        "minimum_orbit_intersection": ".0170557",
        "jupiter_tisserand_invariant": "3.201",
        "epoch_osculation": "2456683.5",
        "eccentricity": ".6687193260677822",
        "semi_major_axis": "2.366149733244991",
        "inclination": "2.810940123560663",
        "ascending_node_longitude": "113.744406182995",
        "orbital_period": "1329.418636798531",
        "perihelion_distance": ".783859678253938",
        "perihelion_argument": "81.45134385786268",
        "aphelion_distance": "3.948439788236043",
        "perihelion_time": "2456730.008541251014",
        "mean_anomaly": "347.4057167645211",
        "mean_motion": ".2707950603633344",
        "equinox": "J2000",
        "orbit_class": {
            "orbit_class_type": "APO",
            "orbit_class_description": "Near-Earth asteroid orbits which cross the Earth’s orbit similar to that of 1862 Apollo",
            "orbit_class_range": "a (semi-major axis) > 1.0 AU; q (perihelion) < 1.017 AU"
        }
    },
    "is_sentry_object": false
}